ONEWEB-0614             
1 55156U 23004S   26169.60479947 -.00000401  00000+0 -11661-2 0  9994
2 55156  87.8883  20.7951 0002002  81.9258 278.2097 13.11414193166025
ONEWEB-0616             
1 55157U 23004T   26169.50988714  .00000009  00000+0 -10404-4 0  9990
2 55157  87.9132   5.6045 0000951  81.3220 278.8019 13.17648983167870
ONEWEB-0617             
1 55158U 23004U   26169.51664968  .00000041  00000+0  78768-4 0  9996
2 55158  87.8889  20.8038 0002234  84.4608 275.6774 13.11414080166033
ONEWEB-0618             
1 55159U 23004V   26169.38132701  .00002984  00000+0  16646-3 0  9991
2 55159  86.9089 177.1499 0009583 294.5060  65.5180 15.13143384182443
ONEWEB-0619             
1 55160U 23004W   26169.08633381 -.00000064  00000+0 -19828-3 0  9994
2 55160  87.9142   5.6694 0001926  75.6448 284.4897 13.17649298167716
ONEWEB-0620             
1 55161U 23004X   26169.13006729  .00000201  00000+0  53143-3 0  9990
2 55161  87.8882  20.8894 0001903  93.9823 266.1523 13.11413588165955
ONEWEB-0621             
1 55162U 23004Y   26169.30978272 -.00000487  00000+0 -14099-2 0  9995
2 55162  87.8892  20.8429 0002005  81.5383 278.5972 13.11416010165957
ONEWEB-0622             
1 55163U 23004Z   26169.62006037 -.00001521  00000+0 -43278-2 0  9993
2 55163  87.8898  20.7831 0002728  86.5803 273.5637 13.11421512165983
ONEWEB-0623             
1 55164U 23004AA  26169.30907029 -.00000026  00000+0 -10021-3 0  9990
2 55164  87.9130   5.6554 0002508  76.7518 283.3893 13.17649513167735
ONEWEB-0624             
1 55165U 23004AB  26169.49045029  .00000372  00000+0  99267-3 0  9995
2 55165  87.8943 350.3256 0001891  87.9320 272.2026 13.12928476168240
ONEWEB-0625             
1 55166U 23004AC  26169.52676322  .00000011  00000+0 -46454-5 0  9999
2 55166  87.9131   5.6078 0001703  86.1428 273.9898 13.17649078167758
ONEWEB-0626             
1 55167U 23004AD  26169.51665846 -.00001643  00000+0 -42655-2 0  9997
2 55167  87.9129   5.6101 0002418 105.9911 254.1487 13.17634248167752
ONEWEB-0627             
1 55168U 23004AE  26169.50481931 -.00000017  00000+0 -76518-4 0  9999
2 55168  87.9131   5.6123 0002282  79.9493 280.1896 13.17648202167752
ONEWEB-0628             
1 55169U 23004AF  26169.47234007 -.00000012  00000+0 -67623-4 0  9998
2 55169  87.8947 350.3972 0002327  76.7637 283.3751 13.12445711168205
ONEWEB-0629             
1 55170U 23004AG  26169.10066448  .00000032  00000+0  49521-4 0  9999
2 55170  87.9132   5.6884 0001861  76.3682 283.7657 13.17647813167709
ONEWEB-0631             
1 55171U 23004AH  26169.69489036  .00000033  00000+0  51036-4 0  9991
2 55171  87.9170 335.1354 0002279 101.5638 258.5750 13.18685773169873
ONEWEB-0709             
1 55172U 23004AJ  26169.34879897  .00000598  00000+0  16521-2 0  9996
2 55172  87.8884  20.8481 0001834 114.2199 245.9120 13.11415880166021
ONEWEB-0710             
1 55173U 23004AK  26169.03907609  .00000061  00000+0  12487-3 0  9999
2 55173  87.9131   5.6964 0002016  87.1178 273.0184 13.17649729167696
ONEWEB-0711             
1 55174U 23004AL  26169.62514934 -.00000289  00000+0 -84998-3 0  9990
2 55174  87.8885  20.7805 0002518  80.1417 279.9995 13.11420672166029
ONEWEB-0713             
1 55175U 23004AM  26169.33863054  .00000448  00000+0  12294-2 0  9993
2 55175  87.8888  20.8391 0002198  83.0047 277.1331 13.11417476165974
ONEWEB-0715             
1 55176U 23004AN  26169.33353104  .00000286  00000+0  77135-3 0  9990
2 55176  87.8887  20.8408 0002124 104.5850 255.5514 13.11419607166010
ONEWEB-0716             
1 55177U 23004AP  26169.48794274  .00000016  00000+0  84591-5 0  9991
2 55177  87.9131   5.6096 0001627  86.1922 273.9395 13.17650064167753
ONEWEB-0717             
1 55178U 23004AQ  26169.54700926  .00000039  00000+0  67827-4 0  9997
2 55178  87.9143   5.5854 0002437  88.5107 271.6304 13.17648963167816
ONEWEB-0719             
1 55179U 23004AR  26169.55713784 -.00000043  00000+0 -14389-3 0  9996
2 55179  87.9140   5.5637 0001741  82.2220 277.9109 13.17649842167760
ONEWEB-0530             
1 55796U 23029A   26169.68082884  .00000024  00000+0  26099-4 0  9991
2 55796  87.9185 274.1712 0002277  90.7320 269.4074 13.20771423161342
ONEWEB-0534             
1 55797U 23029B   26169.66903715 -.00000039  00000+0 -12679-3 0  9991
2 55797  87.9187 274.1741 0001861 101.0504 259.0839 13.20771481161343
ONEWEB-0556             
1 55798U 23029C   26169.67576505 -.00000003  00000+0 -38776-4 0  9994
2 55798  87.9185 274.1722 0001534  75.9786 284.1518 13.20773746161348
ONEWEB-0562             
1 55799U 23029D   26169.58654463  .00000010  00000+0 -71926-5 0  9997
2 55799  87.9185 274.1707 0002240  77.8740 282.2645 13.20771219161330
ONEWEB-0563             
1 55800U 23029E   26169.58149995 -.00000034  00000+0 -11457-3 0  9997
2 55800  87.9185 274.2021 0001747 103.4482 256.6846 13.20772327161321
ONEWEB-0564             
1 55801U 23029F   26169.57476950  .00000019  00000+0  14218-4 0  9991
2 55801  87.9188 274.1769 0002126  90.0356 270.1021 13.20771554161334
ONEWEB-0638             
1 55802U 23029G   26169.61096546  .00000036  00000+0  63598-4 0  9990
2 55802  87.8956 289.4679 0001724  83.9517 276.1809 13.14504297159584
