OBJECT_NAME,OBJECT_ID,EPOCH,MEAN_MOTION,ECCENTRICITY,INCLINATION,RA_OF_ASC_NODE,ARG_OF_PERICENTER,MEAN_ANOMALY,EPHEMERIS_TYPE,CLASSIFICATION_TYPE,NORAD_CAT_ID,ELEMENT_SET_NO,REV_AT_EPOCH,BSTAR,MEAN_MOTION_DOT,MEAN_MOTION_DDOT
ONEWEB-0614,2023-004S,2026-06-18T14:30:54.674208,13.11414193,.0002002,87.8883,20.7951,81.9258,278.2097,0,U,55156,999,16602,-.11661E-2,-.401E-5,0
ONEWEB-0616,2023-004T,2026-06-18T12:14:14.248896,13.17648983,.0000951,87.9132,5.6045,81.3220,278.8019,0,U,55157,999,16787,-.10404E-4,.9E-7,0
ONEWEB-0617,2023-004U,2026-06-18T12:23:58.532352,13.11414080,.0002234,87.8889,20.8038,84.4608,275.6774,0,U,55158,999,16603,.78768E-4,.41E-6,0
ONEWEB-0618,2023-004V,2026-06-18T09:09:06.653664,15.13143384,.0009583,86.9089,177.1499,294.5060,65.5180,0,U,55159,999,18244,.16646E-3,.2984E-4,0
ONEWEB-0619,2023-004W,2026-06-18T02:04:19.241184,13.17649298,.0001926,87.9142,5.6694,75.6448,284.4897,0,U,55160,999,16771,-.19828E-3,-.64E-6,0
ONEWEB-0620,2023-004X,2026-06-18T03:07:17.813856,13.11413588,.0001903,87.8882,20.8894,93.9823,266.1523,0,U,55161,999,16595,.53143E-3,.201E-5,0
ONEWEB-0621,2023-004Y,2026-06-18T07:26:05.227008,13.11416010,.0002005,87.8892,20.8429,81.5383,278.5972,0,U,55162,999,16595,-.14099E-2,-.487E-5,0
ONEWEB-0622,2023-004Z,2026-06-18T14:52:53.215968,13.11421512,.0002728,87.8898,20.7831,86.5803,273.5637,0,U,55163,999,16598,-.43278E-2,-.1521E-4,0
ONEWEB-0623,2023-004AA,2026-06-18T07:25:03.673056,13.17649513,.0002508,87.9130,5.6554,76.7518,283.3893,0,U,55164,999,16773,-.10021E-3,-.26E-6,0
ONEWEB-0624,2023-004AB,2026-06-18T11:46:14.905056,13.12928476,.0001891,87.8943,350.3256,87.9320,272.2026,0,U,55165,999,16824,.99267E-3,.372E-5,0
ONEWEB-0625,2023-004AC,2026-06-18T12:38:32.342208,13.17649078,.0001703,87.9131,5.6078,86.1428,273.9898,0,U,55166,999,16775,-.46454E-5,.11E-6,0
ONEWEB-0626,2023-004AD,2026-06-18T12:23:59.290944,13.17634248,.0002418,87.9129,5.6101,105.9911,254.1487,0,U,55167,999,16775,-.42655E-2,-.1643E-4,0
ONEWEB-0627,2023-004AE,2026-06-18T12:06:56.388384,13.17648202,.0002282,87.9131,5.6123,79.9493,280.1896,0,U,55168,999,16775,-.76518E-4,-.17E-6,0
ONEWEB-0628,2023-004AF,2026-06-18T11:20:10.182048,13.12445711,.0002327,87.8947,350.3972,76.7637,283.3751,0,U,55169,999,16820,-.67623E-4,-.12E-6,0
ONEWEB-0629,2023-004AG,2026-06-18T02:24:57.411072,13.17647813,.0001861,87.9132,5.6884,76.3682,283.7657,0,U,55170,999,16770,.49521E-4,.32E-6,0
ONEWEB-0631,2023-004AH,2026-06-18T16:40:38.527104,13.18685773,.0002279,87.9170,335.1354,101.5638,258.5750,0,U,55171,999,16987,.51036E-4,.33E-6,0
ONEWEB-0709,2023-004AJ,2026-06-18T08:22:16.231008,13.11415880,.0001834,87.8884,20.8481,114.2199,245.9120,0,U,55172,999,16602,.16521E-2,.598E-5,0
ONEWEB-0710,2023-004AK,2026-06-18T00:56:16.174176,13.17649729,.00020161,87.9131,5.6964,87.1178,273.0184,0,U,55173,999,16769,.12486793E-3,.61E-6,0
ONEWEB-0711,2023-004AL,2026-06-18T15:00:12.902976,13.11420672,.0002518,87.8885,20.7805,80.1417,279.9995,0,U,55174,999,16602,-.84998E-3,-.289E-5,0
ONEWEB-0713,2023-004AM,2026-06-18T08:07:37.678656,13.11417476,.0002198,87.8888,20.8391,83.0047,277.1331,0,U,55175,999,16597,.12294E-2,.448E-5,0
ONEWEB-0715,2023-004AN,2026-06-18T08:00:17.081856,13.11419607,.0002124,87.8887,20.8408,104.5850,255.5514,0,U,55176,999,16601,.77135E-3,.286E-5,0
ONEWEB-0716,2023-004AP,2026-06-18T11:42:38.252736,13.17650064,.0001627,87.9131,5.6096,86.1922,273.9395,0,U,55177,999,16775,.84591E-5,.16E-6,0
ONEWEB-0717,2023-004AQ,2026-06-18T13:07:41.600064,13.17648963,.0002437,87.9143,5.5854,88.5107,271.6304,0,U,55178,999,16781,.67827E-4,.39E-6,0
ONEWEB-0719,2023-004AR,2026-06-18T13:22:16.709376,13.17649842,.0001741,87.9140,5.5637,82.2220,277.9109,0,U,55179,999,16776,-.14389E-3,-.43E-6,0
ONEWEB-0530,2023-029A,2026-06-18T16:20:23.611776,13.20771423,.0002277,87.9185,274.1712,90.7320,269.4074,0,U,55796,999,16134,.26099E-4,.24E-6,0
ONEWEB-0534,2023-029B,2026-06-18T16:03:24.809760,13.20771481,.0001861,87.9187,274.1741,101.0504,259.0839,0,U,55797,999,16134,-.12679E-3,-.39E-6,0
ONEWEB-0556,2023-029C,2026-06-18T16:13:06.100320,13.20773746,.0001534,87.9185,274.1722,75.9786,284.1518,0,U,55798,999,16134,-.38776E-4,-.3E-7,0
ONEWEB-0562,2023-029D,2026-06-18T14:04:37.456032,13.20771219,.000224,87.9185,274.1707,77.8740,282.2645,0,U,55799,999,16133,-.71926E-5,.1E-6,0
ONEWEB-0563,2023-029E,2026-06-18T13:57:21.595680,13.20772327,.0001747,87.9185,274.2021,103.4482,256.6846,0,U,55800,999,16132,-.11457E-3,-.34E-6,0
ONEWEB-0564,2023-029F,2026-06-18T13:47:40.084800,13.20771554,.0002126,87.9188,274.1769,90.0356,270.1021,0,U,55801,999,16133,.14218E-4,.19E-6,0
ONEWEB-0638,2023-029G,2026-06-18T14:39:47.415744,13.14504297,.0001724,87.8956,289.4679,83.9517,276.1809,0,U,55802,999,15958,.63598E-4,.36E-6,0
